{
    "links": {
        "self": "http://www.neowsapp.com/rest/v1/neo/3694132?api_key=iIulBulltgU6a56xZRHN4H3l9WmuAYTsLGpBGhQ2"
    },
    "id": "3694132",
    "neo_reference_id": "3694132",
    "name": "(2014 UG56)",
    "designation": "2014 UG56",
    "nasa_jpl_url": "http://ssd.jpl.nasa.gov/sbdb.cgi?sstr=3694132",
    "absolute_magnitude_h": 25.2,
    "estimated_diameter": {
        "kilometers": {
            "estimated_diameter_min": 0.0242412481,
            "estimated_diameter_max": 0.0542050786
        },
        "meters": {
            "estimated_diameter_min": 24.2412481101,
            "estimated_diameter_max": 54.2050786336
        },
        "miles": {
            "estimated_diameter_min": 0.0150628086,
            "estimated_diameter_max": 0.0336814639
        },
        "feet": {
            "estimated_diameter_min": 79.5316564495,
            "estimated_diameter_max": 177.8381901842
        }
    },
    "is_potentially_hazardous_asteroid": false,
    "close_approach_data": [
        {
            "close_approach_date": "1926-04-23",
            "close_approach_date_full": "1926-Apr-23 02:24",
            "epoch_date_close_approach": -1378848960000,
            "relative_velocity": {
                "kilometers_per_second": "24.497306587",
                "kilometers_per_hour": "88190.3037131831",
                "miles_per_hour": "54798.0251044498"
            },
            "miss_distance": {
                "astronomical": "0.3042359516",
                "lunar": "118.3477851724",
                "kilometers": "45513050.336783092",
                "miles": "28280498.0951549896"
            },
            "orbiting_body": "Earth"
        },
        {
            "close_approach_date": "2014-10-18",
            "close_approach_date_full": "2014-Oct-18 02:45",
            "epoch_date_close_approach": 1413600300000,
            "relative_velocity": {
                "kilometers_per_second": "20.4258381105",
                "kilometers_per_hour": "73533.0171979717",
                "miles_per_hour": "45690.5572694842"
            },
            "miss_distance": {
                "astronomical": "0.0221103681",
                "lunar": "8.6009331909",
                "kilometers": "3307663.972675947",
                "miles": "2055287.0876921886"
            },
            "orbiting_body": "Earth"
        }
    ],
    "orbital_data": {
        "orbit_id": "5",
        "orbit_determination_date": "2017-04-06 08:37:58",
        "first_observation_date": "2014-10-24",
        "last_observation_date": "2014-10-25",
        "data_arc_in_days": 1,
        "observations_used": 22,
        "orbit_uncertainty": "9",
        "minimum_orbit_intersection": ".0195076",
        "jupiter_tisserand_invariant": "4.425",
        "epoch_osculation": "2456955.5",
        "eccentricity": ".4532904138674704",
        "semi_major_axis": "1.441013696881182",
        "inclination": "29.8020558769784",
        "ascending_node_longitude": "25.22444811668123",
        "orbital_period": "631.8305051867263",
        "perihelion_distance": ".7878160018332174",
        "perihelion_argument": "285.466636855143",
        "aphelion_distance": "2.094211391929146",
        "perihelion_time": "2456897.260117720293",
        "mean_anomaly": "33.18351590906217",
        "mean_motion": ".5697730594593694",
        "equinox": "J2000",
        "orbit_class": {
            "orbit_class_type": "APO",
            "orbit_class_description": "Near-Earth asteroid orbits which cross the Earth’s orbit similar to that of 1862 Apollo",
            "orbit_class_range": "a (semi-major axis) > 1.0 AU; q (perihelion) < 1.017 AU"
        }
    },
    "is_sentry_object": false
}